OPS 6582 (TRANSIT 5B-5) 
1 00965U 64083D   25145.44941823  .00000069  00000+0  84582-4 0  9998
2 00965  90.0604 200.2316 0040367 334.5024  36.9012 13.56965386991020
LES-1                   
1 01002U 65008C   25145.61142948  .00000016  00000+0  10675-2 0  9991
2 01002  32.1423 242.8648 0015580 313.6807  46.2398  9.88354765177845
SOLRAD 7B               
1 01291U 65016D   25145.53923277  .00000032  00000+0  62846-4 0  9990
2 01291  70.0796 340.3722 0023543 269.8996  89.9411 13.94911334 62649
SECOR 4 (EGRS 4)        
1 01315U 65027B   25145.41244634  .00000092  00000+0  31025-3 0  9999
2 01315  90.2427   6.8670 0032414 130.8347  43.4367 12.92657332836827
TIROS 10                
1 01430U 65051A   25145.58869778  .00000191  00000+0  71360-4 0  9991
2 01430  98.4662 262.5549 0055925 161.9142 198.4054 14.41403943140074
ALOUETTE 2              
1 01804U 65098A   25145.55759242  .00000267  00000+0  90276-4 0  9999
2 01804  79.8025 246.2837 1331488 298.2243  49.0676 12.27850866631698
OV3-3                   
1 02389U 66070A   25145.56285811  .00011796  00000+0  54834-3 0  9994
2 02389  81.3269 310.0013 1056916  75.0457 296.5094 13.34962642547064
SECOR 7 (EGRS 7)        
1 02411U 66077B   25145.35846024 -.00000027  00000+0 -14363-1 0  9991
2 02411  90.3356 272.9029 0013500  90.9509 269.2889  8.59615650844058
ERS 15                  
1 02412U 66077C   25145.34877077  .00000002  00000+0  00000+0 0  9995
2 02412  90.3354 272.6973 0008409  97.8115 262.3691  8.59078097357156
ISIS 1                  
1 03669U 69009A   25145.59901981  .00000099  00000+0  72015-4 0  9993
2 03669  88.4532 186.7162 1707247 310.7972  35.6719 11.30268290315983
SECOR 13 (EGRS 13)      
1 03891U 69037B   25145.26017774 -.00000016  00000+0  46423-4 0  9997
2 03891  99.7068  27.4693 0040149 122.4362 355.3973 13.42956600749686
ATS 5                   
1 04068U 69069A   25145.53082012 -.00000289  00000+0  00000+0 0  9994
2 04068   0.9417 256.9683 0004505  16.7863 310.1297  0.99497089 42469
OPS 7613 (P/L 4)        
1 04237U 69082E   25145.60958006  .00000042  00000+0  69202-4 0  9990
2 04237  70.0146 211.7975 0023136 274.7838 241.0564 13.95914418832215
OPS 7613 (P/L 1)        
1 04256U 69082B   25145.53624732  .00000095  00000+0  10214-3 0  9995
2 04256  70.0098  77.6883 0021008 218.2603 141.7014 13.99052343836245
SHINSEI (MS-F2)         
1 05485U 71080A   25145.57552431  .00000013  00000+0 -82477-5 0  9994
2 05485  32.0574 340.3106 0639957 356.1608   3.4233 12.74233219499797
PROSPERO (BLACK ARROW)  
1 05580U 71093A   25145.36472823  .00000880  00000+0  18967-3 0  9999
2 05580  82.0383 270.8895 0505108 258.1879  96.2235 14.00314806694229
OPS 7898 (P/L 2)        
1 05680U 71110C   25145.57991959 -.00000019  00000+0  32837-4 0  9997
2 05680  69.9897  82.8013 0010195 289.1441  70.8549 13.74715797294948
NOAA 2 (ITOS-D)         
1 06235U 72082A   25145.49747522 -.00000033  00000+0  87144-4 0  9996
2 06235 102.0212 154.5439 0004053 182.8669 345.7240 12.53200465406383
OSCAR 7 (AO-7)          
1 07530U 74089B   25145.50485558 -.00000031  00000+0  95498-4 0  9993
2 07530 101.9933 149.6085 0012430 149.3142   5.5018 12.53689294311935
TIROS N                 
1 11060U 78096A   25145.53973396  .00000168  00000+0  10000-3 0  9998
2 11060  98.4881 178.4496 0009205 287.5885  72.4286 14.19186842623763
PHASE 3B (AO-10)        
1 14129U 83058B   25142.40485763  .00000028  00000+0  00000+0 0  9990
2 14129  26.7725 285.3981 6058726   7.3036 358.4435  2.05869199287443
HILAT                   
1 14154U 83063A   25145.40359168  .00000401  00000+0  12558-3 0  9996
2 14154  82.0231 161.4732 0040202  27.7459  91.7284 14.38326211191833
UOSAT 2 (UO-11)         
1 14781U 84021B   25145.61904724  .00001250  00000+0  13750-3 0  9992
2 14781  97.7537 112.2852 0008733  35.7782 324.4019 14.89342915199418
NOAA 9                  
1 15427U 84123A   25145.32722260  .00000104  00000+0  75339-4 0  9993
2 15427  99.1220 157.4081 0014860  12.5302 358.7852 14.16920029 88493
GEOSAT                  
1 15595U 85021A   25145.40057453  .00000128  00000+0  84333-4 0  9991
2 15595 108.0574 354.3824 0001580 286.2231  73.8737 14.39668864106950
EUTELSAT 1-F4 (ECS 4)   
1 18351U 87078B   25145.16990483 -.00000191  00000+0  00000+0 0  9995
2 18351  14.1057 344.8487 0010520  41.8668 280.8244  0.98690879122927
PACSAT (AO-16)          
1 20439U 90005D   25145.55539119  .00000127  00000+0  62571-4 0  9991
2 20439  98.8887 166.2740 0009510 290.8981 232.0485 14.33765139846381
LUSAT (LO-19)           
1 20442U 90005G   25145.45439615  .00000119  00000+0  59440-4 0  9996
2 20442  98.8983 151.2266 0010467 262.2797  97.7198 14.33948705846828
IRS-1B                  
1 21688U 91061A   25145.47163696 -.00000195  00000+0 -10442-3 0  9991
2 21688  99.3990 138.9558 0024067 338.6849 174.7932 13.97793061614320
COSMOS 2197             
1 22034U 92042A   25145.39277711  .00000024  00000+0  73202-4 0  9995
2 22034  82.5917 116.7600 0014037  77.3779  76.3496 12.64236318516284
PEGASUS R/B             
1 22491U 93009C   25144.98545251  .00000816  00000+0  13139-3 0  9998
2 22491  24.9790  11.3971 0044489 242.3548 117.2442 14.57163845712937
EYESAT A (AO-27)        
1 22825U 93061C   25145.11269976  .00000102  00000+0  56088-4 0  9999
2 22825  98.7372 206.5903 0008962 151.8024 208.3645 14.30793910651500
ITAMSAT (IO-26)         
1 22826U 93061D   25145.41562165  .00000117  00000+0  61205-4 0  9992
2 22826  98.7321 206.7770 0009748 136.7851 223.4098 14.31206555651844
RADIO ROSTO (RS-15)     
1 23439U 94085A   25145.54422527 -.00000041  00000+0  53731-4 0  9993
2 23439  64.8149 210.1208 0145535  77.3007 284.4142 11.27581197252192
JAS-2 (FO-29)           
1 24278U 96046B   25145.30017384 -.00000009  00000+0  26365-4 0  9996
2 24278  98.5778  41.2012 0350443  22.3620 339.2383 13.53247751420705
FORTE                   
1 24920U 97047A   25145.41004369  .00000192  00000+0  10086-3 0  9997
2 24920  69.9517 169.7283 0019259  86.7115 273.6210 14.27701969443330
NOAA 15                 
1 25338U 98030A   25145.52570679  .00000250  00000+0  12022-3 0  9995
2 25338  98.5357 171.0188 0011111  48.7363 311.4773 14.26970787406009
TECHSAT 1B (GO-32)      
1 25397U 98043D   25145.37764531  .00000060  00000+0  46175-4 0  9995
2 25397  98.9697 124.1804 0000363 204.7402 155.3759 14.24311188396126
ISS (ZARYA)             
1 25544U 98067A   25145.27195366  .00010228  00000+0  18875-3 0  9990
2 25544  51.6378  60.6053 0002408 142.7188   0.8794 15.49724625511603
ORSTED                  
1 25635U 99008B   25145.40443794  .00000765  00000+0  17968-3 0  9990
2 25635  96.4456 136.8236 0132435 351.2855   8.6046 14.51109543385714
LANDSAT 7               
1 25682U 99020A   25145.56691774  .00000485  00000+0  10231-3 0  9991
2 25682  97.8629 162.0523 0001227  98.4621 359.0125 14.63412576389146
ORBCOMM FM36            
1 25984U 99065E   25145.54969011  .00000784  00000+0  30306-3 0  9992
2 25984  45.0379 198.1707 0004579 218.1237 141.9289 14.38074255331752
DMSP 5D-3 F15 (USA 147) 
1 25991U 99067A   25145.57819515  .00000146  00000+0  94918-4 0  9990
2 25991  99.0394 173.3259 0010357  30.9439 141.2393 14.17372902315734
OPAL (OO-38)            
1 26063U 00004C   25145.51667021  .00000122  00000+0  59708-4 0  9993
2 26063 100.2163   5.7292 0036503  51.3240 309.1197 14.37770952327578
IMAGE                   
1 26113U 00017A   25144.32460352  .00000153  00000+0  54222-2 0  9997
2 26113  93.8774 309.4312 7662969 334.1847   2.0653  1.68663558154947
CLUSTER II-FM7 (SAMBA)  
1 26410U 00041A   25146.99811675  .00001544  00000+0  00000+0 0  9994
2 26410 144.0346  10.5848 8336174 225.8683   1.1127  0.44842779 18577
CLUSTER II-FM5 (RUMBA)  
1 26463U 00045A   25142.19549594  .00004456  00000+0  00000+0 0  9997
2 26463 152.5010  72.0032 9066245 290.3471   1.9446  0.42919517 18459
CLUSTER II-FM8 (TANGO)  
1 26464U 00045B   25146.16603293  .00001554  00000+0  00000+0 0  9992
2 26464 144.2860  10.9124 8339109 226.0680   0.5155  0.44417139 18584
MEGSAT-1                
1 26546U 00057B   25145.52254859  .00002301  00000+0  18629-3 0  9996
2 26546  64.5514 228.1964 0016614 309.9785  49.9871 15.02259644339361
PHASE 3D (AO-40)        
1 26609U 00072B   25145.13829552 -.00000248  00000+0  00000+0 0  9997
2 26609   9.5088  45.7039 7973277  60.8778 354.5807  1.25590450112637
ODIN                    
1 26702U 01007A   25145.49922437  .00014977  00000+0  38585-3 0  9991
2 26702  97.4468 168.7158 0007735 131.4787 228.7124 15.39280549329260
OMNI-M1                 
1 26857U 01026A   25144.66306811 -.00000046  00000+0  00000+0 0  9993
2 26857  45.0037 334.6601 0014178 322.8659  37.0662  3.92401471346006
PCSAT (NO-44)           
1 26931U 01043C   25145.41711006  .00000134  00000+0  81393-4 0  9991
2 26931  67.0490 167.0439 0005952 274.8215  85.2207 14.31726572234932
PROBA-1                 
1 26958U 01049B   25145.60360889  .00002266  00000+0  15807-3 0  9990
2 26958  97.9465 136.5034 0057380 353.1948   6.8491 15.05178393285274
SPOT 5                  
1 27421U 02021A   25145.39164835  .00000450  00000+0  10493-3 0  9995
2 27421  98.0366 195.3427 0131394  42.1116 319.0089 14.54280663206475
FENGYUN 1D              
1 27431U 02024B   25145.39586306  .00000059  00000+0  58788-4 0  9995
2 27431  99.0056 191.3125 0014386 251.8027 108.1577 14.10143292184826
SAUDISAT 1C (SO-50)     
1 27607U 02058C   25145.56816444  .00000908  00000+0  13114-3 0  9991
2 27607  64.5530 246.8712 0054584 337.4582  22.4125 14.81585169207008
CORIOLIS                
1 27640U 03001A   25144.98409435  .00000113  00000+0  73950-4 0  9993
2 27640  98.7126 152.8309 0012904 249.3703 110.6090 14.19785362159138
CUTE-1 (CO-55)          
1 27844U 03031E   25145.01068594  .00000296  00000+0  14793-3 0  9995
2 27844  98.6760 153.4852 0008637 227.6727 132.3720 14.23984026136421
